{
  "type": "FeatureCollection",
  "features": [
    {
      "type": "Feature",
      "geometry": {
        "type": "Point",
        "coordinates": [
          -106,
          34.5
        ]
      },
      "properties": {
        "country": "New Mexico, USA",
        "region": "New Mexico, USA",
        "location": "Chaco Culture NHP, approx. 36.06, -107.96",
        "addressOrArea": "",
        "phenomenon": "Sacred/cultural landscape, archaeoastronomy",
        "category": "",
        "evidenceLevel": 0,
        "visitPriority": 0,
        "routeCluster": "Southwest sacred/UAP route",
        "routeStop": 0,
        "officialUrl": "",
        "coordinateConfidence": "regional"
      }
    },
    {
      "type": "Feature",
      "geometry": {
        "type": "Point",
        "coordinates": [
          -106,
          34.5
        ]
      },
      "properties": {
        "country": "Roswell, New Mexico, USA",
        "region": "Roswell, New Mexico, USA",
        "location": "Roswell UFO Museum, 114 N. Main St.",
        "addressOrArea": "",
        "phenomenon": "UAP crash narrative",
        "category": "",
        "evidenceLevel": 0,
        "visitPriority": 0,
        "routeCluster": "Southwest UAP route",
        "routeStop": 0,
        "officialUrl": "",
        "coordinateConfidence": "regional"
      }
    },
    {
      "type": "Feature",
      "geometry": {
        "type": "Point",
        "coordinates": [
          -63,
          45
        ]
      },
      "properties": {
        "country": "Shag Harbour, Nova Scotia, Canada",
        "region": "Shag Harbour, Nova Scotia, Canada",
        "location": "Shag Harbour Interpretive Centre and UFO Gazebo",
        "addressOrArea": "",
        "phenomenon": "UAP water-impact report",
        "category": "",
        "evidenceLevel": 0,
        "visitPriority": 0,
        "routeCluster": "Atlantic Canada route",
        "routeStop": 0,
        "officialUrl": "",
        "coordinateConfidence": "regional"
      }
    },
    {
      "type": "Feature",
      "geometry": {
        "type": "Point",
        "coordinates": [
          -77.2,
          41.2
        ]
      },
      "properties": {
        "country": "Gettysburg, Pennsylvania, USA",
        "region": "Gettysburg, Pennsylvania, USA",
        "location": "Gettysburg National Military Park, 1195 Baltimore Pike",
        "addressOrArea": "",
        "phenomenon": "Battlefield haunting tradition",
        "category": "",
        "evidenceLevel": 0,
        "visitPriority": 0,
        "routeCluster": "Mid-Atlantic/Appalachia",
        "routeStop": 0,
        "officialUrl": "",
        "coordinateConfidence": "regional"
      }
    },
    {
      "type": "Feature",
      "geometry": {
        "type": "Point",
        "coordinates": [
          -71.8,
          42.3
        ]
      },
      "properties": {
        "country": "Salem, Massachusetts, USA",
        "region": "Salem, Massachusetts, USA",
        "location": "Salem Witch Trials sites, incl. Howard Street Cemetery",
        "addressOrArea": "",
        "phenomenon": "Witch-trial hauntings",
        "category": "",
        "evidenceLevel": 0,
        "visitPriority": 0,
        "routeCluster": "New England route",
        "routeStop": 0,
        "officialUrl": "",
        "coordinateConfidence": "regional"
      }
    },
    {
      "type": "Feature",
      "geometry": {
        "type": "Point",
        "coordinates": [
          -78.7,
          37.5
        ]
      },
      "properties": {
        "country": "Weston, West Virginia, USA",
        "region": "Weston, West Virginia, USA",
        "location": "Trans-Allegheny Lunatic Asylum",
        "addressOrArea": "",
        "phenomenon": "Institutional haunting",
        "category": "",
        "evidenceLevel": 0,
        "visitPriority": 0,
        "routeCluster": "Appalachia route",
        "routeStop": 0,
        "officialUrl": "",
        "coordinateConfidence": "regional"
      }
    },
    {
      "type": "Feature",
      "geometry": {
        "type": "Point",
        "coordinates": [
          -78.7,
          37.5
        ]
      },
      "properties": {
        "country": "Point Pleasant, West Virginia, USA",
        "region": "Point Pleasant, West Virginia, USA",
        "location": "Mothman Museum, 400 Main St.",
        "addressOrArea": "",
        "phenomenon": "Cryptid/UAP-adjacent folklore",
        "category": "",
        "evidenceLevel": 0,
        "visitPriority": 0,
        "routeCluster": "Appalachia cryptid route",
        "routeStop": 0,
        "officialUrl": "",
        "coordinateConfidence": "regional"
      }
    },
    {
      "type": "Feature",
      "geometry": {
        "type": "Point",
        "coordinates": [
          -89,
          20.7
        ]
      },
      "properties": {
        "country": "Yucatan, Mexico",
        "region": "Yucatan, Mexico",
        "location": "Chichen-Itza / Sacred Cenote, 20.6827, -88.5687",
        "addressOrArea": "",
        "phenomenon": "Sacred Maya anomaly tradition",
        "category": "",
        "evidenceLevel": 0,
        "visitPriority": 0,
        "routeCluster": "Maya/Yucatan route",
        "routeStop": 0,
        "officialUrl": "",
        "coordinateConfidence": "regional"
      }
    },
    {
      "type": "Feature",
      "geometry": {
        "type": "Point",
        "coordinates": [
          -89.2,
          40
        ]
      },
      "properties": {
        "country": "Collinsville, Illinois, USA",
        "region": "Collinsville, Illinois, USA",
        "location": "Cahokia Mounds, 30 Ramey St.",
        "addressOrArea": "",
        "phenomenon": "Sacred/archaeological landscape",
        "category": "",
        "evidenceLevel": 0,
        "visitPriority": 0,
        "routeCluster": "Mississippi Valley route",
        "routeStop": 0,
        "officialUrl": "",
        "coordinateConfidence": "regional"
      }
    },
    {
      "type": "Feature",
      "geometry": {
        "type": "Point",
        "coordinates": [
          -82.8,
          40.4
        ]
      },
      "properties": {
        "country": "Peebles, Ohio, USA",
        "region": "Peebles, Ohio, USA",
        "location": "Serpent Mound, 3850 State Route 73",
        "addressOrArea": "",
        "phenomenon": "Effigy mound, sacred landscape",
        "category": "",
        "evidenceLevel": 0,
        "visitPriority": 0,
        "routeCluster": "Ohio Valley route",
        "routeStop": 0,
        "officialUrl": "",
        "coordinateConfidence": "regional"
      }
    },
    {
      "type": "Feature",
      "geometry": {
        "type": "Point",
        "coordinates": [
          -119.4,
          36.8
        ]
      },
      "properties": {
        "country": "San Jose, California, USA",
        "region": "San Jose, California, USA",
        "location": "Winchester Mystery House, 525 S. Winchester Blvd.",
        "addressOrArea": "",
        "phenomenon": "Haunted architecture",
        "category": "",
        "evidenceLevel": 0,
        "visitPriority": 0,
        "routeCluster": "California route",
        "routeStop": 0,
        "officialUrl": "",
        "coordinateConfidence": "regional"
      }
    },
    {
      "type": "Feature",
      "geometry": {
        "type": "Point",
        "coordinates": [
          -77.2,
          41.2
        ]
      },
      "properties": {
        "country": "Philadelphia, Pennsylvania, USA",
        "region": "Philadelphia, Pennsylvania, USA",
        "location": "Eastern State Penitentiary",
        "addressOrArea": "",
        "phenomenon": "Prison haunting",
        "category": "",
        "evidenceLevel": 0,
        "visitPriority": 0,
        "routeCluster": "Mid-Atlantic route",
        "routeStop": 0,
        "officialUrl": "",
        "coordinateConfidence": "regional"
      }
    },
    {
      "type": "Feature",
      "geometry": {
        "type": "Point",
        "coordinates": [
          -119.4,
          36.8
        ]
      },
      "properties": {
        "country": "San Francisco, California, USA",
        "region": "San Francisco, California, USA",
        "location": "Alcatraz Island",
        "addressOrArea": "",
        "phenomenon": "Prison hauntings, Indigenous occupation memory",
        "category": "",
        "evidenceLevel": 0,
        "visitPriority": 0,
        "routeCluster": "California route",
        "routeStop": 0,
        "officialUrl": "",
        "coordinateConfidence": "regional"
      }
    },
    {
      "type": "Feature",
      "geometry": {
        "type": "Point",
        "coordinates": [
          -99.9,
          31
        ]
      },
      "properties": {
        "country": "Marfa, Texas, USA",
        "region": "Marfa, Texas, USA",
        "location": "Marfa Lights Viewing Area",
        "addressOrArea": "",
        "phenomenon": "Anomalous lights",
        "category": "",
        "evidenceLevel": 0,
        "visitPriority": 0,
        "routeCluster": "Southwest desert route",
        "routeStop": 0,
        "officialUrl": "",
        "coordinateConfidence": "regional"
      }
    },
    {
      "type": "Feature",
      "geometry": {
        "type": "Point",
        "coordinates": [
          -86.4,
          35.8
        ]
      },
      "properties": {
        "country": "Adams, Tennessee, USA",
        "region": "Adams, Tennessee, USA",
        "location": "Bell Witch Cave",
        "addressOrArea": "",
        "phenomenon": "Poltergeist folklore",
        "category": "",
        "evidenceLevel": 0,
        "visitPriority": 0,
        "routeCluster": "Appalachia route",
        "routeStop": 0,
        "officialUrl": "",
        "coordinateConfidence": "regional"
      }
    },
    {
      "type": "Feature",
      "geometry": {
        "type": "Point",
        "coordinates": [
          -99.1,
          19.4
        ]
      },
      "properties": {
        "country": "Mexico City, Mexico",
        "region": "Mexico City, Mexico",
        "location": "Island of the Dolls, Xochimilco canals",
        "addressOrArea": "",
        "phenomenon": "Haunted folk-art island",
        "category": "",
        "evidenceLevel": 0,
        "visitPriority": 0,
        "routeCluster": "Central Mexico route",
        "routeStop": 0,
        "officialUrl": "",
        "coordinateConfidence": "regional"
      }
    },
    {
      "type": "Feature",
      "geometry": {
        "type": "Point",
        "coordinates": [
          -69,
          45.3
        ]
      },
      "properties": {
        "country": "Bangor, Maine, USA",
        "region": "Bangor, Maine, USA",
        "location": "International Cryptozoology Museum, 490 Broadway",
        "addressOrArea": "",
        "phenomenon": "Cryptid archive",
        "category": "",
        "evidenceLevel": 0,
        "visitPriority": 0,
        "routeCluster": "New England route",
        "routeStop": 0,
        "officialUrl": "",
        "coordinateConfidence": "regional"
      }
    },
    {
      "type": "Feature",
      "geometry": {
        "type": "Point",
        "coordinates": [
          -124.7,
          53.7
        ]
      },
      "properties": {
        "country": "British Columbia, Canada",
        "region": "British Columbia, Canada",
        "location": "Okanagan Lake / Kelowna waterfront",
        "addressOrArea": "",
        "phenomenon": "Ogopogo/Nxaxaitkw lake tradition",
        "category": "",
        "evidenceLevel": 0,
        "visitPriority": 0,
        "routeCluster": "Pacific Northwest/BC route",
        "routeStop": 0,
        "officialUrl": "",
        "coordinateConfidence": "regional"
      }
    },
    {
      "type": "Feature",
      "geometry": {
        "type": "Point",
        "coordinates": [
          -70.8995,
          42.5213
        ]
      },
      "properties": {
        "country": "USA",
        "region": "New England",
        "location": "**The Witch House**, Salem, MA",
        "addressOrArea": "310 1/2 Essex St.",
        "phenomenon": "Salem witch-trial memory; haunting folklore nearby",
        "category": "Haunted / folklore",
        "evidenceLevel": 0,
        "visitPriority": 0,
        "routeCluster": "New England",
        "routeStop": 0,
        "officialUrl": "[The Witch House](https://www.thewitchhouse.org/) [7]",
        "coordinateConfidence": "Address-geocoded"
      }
    },
    {
      "type": "Feature",
      "geometry": {
        "type": "Point",
        "coordinates": [
          -80.4675,
          39.0365
        ]
      },
      "properties": {
        "country": "USA",
        "region": "Appalachia",
        "location": "**Trans-Allegheny Lunatic Asylum**, Weston, WV",
        "addressOrArea": "71 Asylum Dr.",
        "phenomenon": "Historic asylum; ghost tours",
        "category": "Haunted",
        "evidenceLevel": 0,
        "visitPriority": 0,
        "routeCluster": "Appalachia",
        "routeStop": 0,
        "officialUrl": "[TALA](https://trans-alleghenylunaticasylum.com/) [8]",
        "coordinateConfidence": "Address-geocoded"
      }
    },
    {
      "type": "Feature",
      "geometry": {
        "type": "Point",
        "coordinates": [
          -82.1371,
          38.8443
        ]
      },
      "properties": {
        "country": "USA",
        "region": "Ohio Valley",
        "location": "**Mothman Museum**, Point Pleasant, WV",
        "addressOrArea": "400 Main St.",
        "phenomenon": "1966 Mothman sightings and archive culture",
        "category": "Cryptid",
        "evidenceLevel": 0,
        "visitPriority": 0,
        "routeCluster": "Appalachia / Ohio River",
        "routeStop": 0,
        "officialUrl": "[Mothman Museum](https://www.mothmanmuseum.com/) [9]",
        "coordinateConfidence": "Address-geocoded"
      }
    },
    {
      "type": "Feature",
      "geometry": {
        "type": "Point",
        "coordinates": [
          -104.523,
          33.3943
        ]
      },
      "properties": {
        "country": "USA",
        "region": "Southwest",
        "location": "**International UFO Museum**, Roswell, NM",
        "addressOrArea": "114 N. Main St.",
        "phenomenon": "1947 Roswell incident interpretation",
        "category": "UAP",
        "evidenceLevel": 0,
        "visitPriority": 0,
        "routeCluster": "Southwest UAP Loop",
        "routeStop": 0,
        "officialUrl": "[Roswell UFO Museum](https://www.roswellufomuseum.com/) [11]",
        "coordinateConfidence": "Address-geocoded"
      }
    },
    {
      "type": "Feature",
      "geometry": {
        "type": "Point",
        "coordinates": [
          -107.961,
          36.0606
        ]
      },
      "properties": {
        "country": "USA",
        "region": "Four Corners",
        "location": "**Chaco Culture NHP**, NM",
        "addressOrArea": "Chaco Canyon, Nageezi area",
        "phenomenon": "Sacred landscape, archaeoastronomy, anomalous-landscape narratives",
        "category": "Sacred / anomalous landscape",
        "evidenceLevel": 0,
        "visitPriority": 0,
        "routeCluster": "Southwest Sacred Landscape",
        "routeStop": 0,
        "officialUrl": "[NPS Chaco](https://www.nps.gov/chcu/planyourvisit/directions.htm)",
        "coordinateConfidence": "Regional park centroid"
      }
    },
    {
      "type": "Feature",
      "geometry": {
        "type": "Point",
        "coordinates": [
          -83.4307,
          39.0256
        ]
      },
      "properties": {
        "country": "USA",
        "region": "Ohio River / Midwest",
        "location": "**Serpent Mound**, Peebles, OH",
        "addressOrArea": "3850 State Route 73",
        "phenomenon": "Effigy mound, sacred landscape, debated dating",
        "category": "Sacred / folklore",
        "evidenceLevel": 0,
        "visitPriority": 0,
        "routeCluster": "Great Lakes / Ohio Valley",
        "routeStop": 0,
        "officialUrl": "[Ohio History](https://www.ohiohistory.org/visit/browse-historical-sites/serpent-mound/)",
        "coordinateConfidence": "Address-geocoded"
      }
    },
    {
      "type": "Feature",
      "geometry": {
        "type": "Point",
        "coordinates": [
          -125.5894,
          61.5472
        ]
      },
      "properties": {
        "country": "Canada",
        "region": "Northwest Territories",
        "location": "**Nahanni National Park Reserve**",
        "addressOrArea": "South Nahanni River; Fort Simpson access office",
        "phenomenon": "Dene oral history, disappearance traditions, remote landscape lore",
        "category": "Folklore / anomalous landscape",
        "evidenceLevel": 0,
        "visitPriority": 0,
        "routeCluster": "Northern Canada",
        "routeStop": 0,
        "officialUrl": "[Parks Canada](https://parks.canada.ca/pn-np/nt/nahanni/visit)",
        "coordinateConfidence": "UNESCO property coordinate"
      }
    },
    {
      "type": "Feature",
      "geometry": {
        "type": "Point",
        "coordinates": [
          -98.8417,
          19.6917
        ]
      },
      "properties": {
        "country": "Mexico",
        "region": "Central Mexico",
        "location": "**Teotihuacan**, Estado de M\u00E9xico",
        "addressOrArea": "Archaeological zone NE of Mexico City",
        "phenomenon": "Sacred city, symbolic geometry, later sacred-place traditions",
        "category": "Sacred / anomalous landscape",
        "evidenceLevel": 0,
        "visitPriority": 0,
        "routeCluster": "Central Mexico",
        "routeStop": 0,
        "officialUrl": "[UNESCO](https://whc.unesco.org/en/list/414/)",
        "coordinateConfidence": "UNESCO coordinate"
      }
    }
  ]
}